COMMENT,ORIGINATOR,NORAD_CAT_ID,OBJECT_NAME,OBJECT_TYPE,CLASSIFICATION_TYPE,INTLDES,EPOCH,EPOCH_MICROSECONDS,MEAN_MOTION,ECCENTRICITY,INCLINATION,RA_OF_ASC_NODE,ARG_OF_PERICENTER,MEAN_ANOMALY,EPHEMERIS_TYPE,ELEMENT_SET_NO,REV_AT_EPOCH,BSTAR,MEAN_MOTION_DOT,MEAN_MOTION_DDOT,FILE,TLE_LINE0,TLE_LINE1,TLE_LINE2,OBJECT_ID,OBJECT_NUMBER,SEMIMAJOR_AXIS,PERIOD,APOGEE,PERIGEE,DECAYED
"GENERATED VIA SPACETRACK.ORG API","18 SPCS","55089","SPACEBEE-163","PAYLOAD","U","23001CJ","2023-06-28 15:43:44","990976","15.20437207","0.0012698","97.4757","239.6356","326.2603","33.7823","0","999","2684","0.00076751","0.00016732","0","3945248","0 SPACEBEE-163","1 55089U 23001CJ  23179.65538184  .00016732  00000-0  76751-3 0  9993","2 55089  97.4757 239.6356 0012698 326.2603  33.7823 15.20437207 26847","2023-001CJ","55089","6882.658","94.710","513.262","495.783","0"
"GENERATED VIA SPACETRACK.ORG API","18 SPCS","55089","SPACEBEE-163","PAYLOAD","U","23001CJ","2023-06-29 18:34:49","174464","15.20473649","0.0012624","97.4761","240.745","321.94","38.0942","0","999","2701","0.00074267","0.00016204","0","3946042","0 SPACEBEE-163","1 55089U 23001CJ  23180.77418026  .00016204  00000-0  74267-3 0  9994","2 55089  97.4761 240.7450 0012624 321.9400  38.0942 15.20473649 27016","2023-001CJ","55089","6882.548","94.707","513.101","495.724","0"
"GENERATED VIA SPACETRACK.ORG API","18 SPCS","55089","SPACEBEE-163","PAYLOAD","U","23001CJ","2023-07-01 02:10:08","814720","15.20512608","0.0012491","97.4762","242.0505","317.0637","42.9622","0","999","2721","0.00059123","0.00012894","0","3946660","0 SPACEBEE-163","1 55089U 23001CJ  23182.09037980  .00012894  00000-0  59123-3 0  9992","2 55089  97.4762 242.0505 0012491 317.0637  42.9622 15.20512608 27213","2023-001CJ","55089","6882.430","94.705","512.892","495.698","0"
"GENERATED VIA SPACETRACK.ORG API","18 SPCS","55089","SPACEBEE-163","PAYLOAD","U","23001CJ","2023-07-02 09:45:25","979616","15.20541477","0.0012486","97.4757","243.3559","311.7063","48.3103","0","999","2741","0.00048624","0.00010597","0","3947757","0 SPACEBEE-163","1 55089U 23001CJ  23183.40655069  .00010597  00000-0  48624-3 0  9994","2 55089  97.4757 243.3559 0012486 311.7063  48.3103 15.20541477 27410","2023-001CJ","55089","6882.343","94.703","512.802","495.615","0"
"GENERATED VIA SPACETRACK.ORG API","18 SPCS","55089","SPACEBEE-163","PAYLOAD","U","23001CJ","2023-07-03 17:20:40","950816","15.20573452","0.0012484","97.4754","244.6615","306.5026","53.5058","0","999","2761","0.00055155","0.00012044","0","3948879","0 SPACEBEE-163","1 55089U 23001CJ  23184.72269619  .00012044  00000-0  55155-3 0  9998","2 55089  97.4754 244.6615 0012484 306.5026  53.5058 15.20573452 27610","2023-001CJ","55089","6882.247","94.701","512.704","495.520","0"
"GENERATED VIA SPACETRACK.ORG API","18 SPCS","55089","SPACEBEE-163","PAYLOAD","U","23001CJ","2023-07-04 21:46:22","335744","15.2060396","0.00124","97.4752","245.8366","301.8995","58.1034","0","999","2779","0.00058933","0.00012886","0","3949943","0 SPACEBEE-163","1 55089U 23001CJ  23185.90720296  .00012886  00000-0  58933-3 0  9993","2 55089  97.4752 245.8366 0012400 301.8995  58.1034 15.20603960 27797","2023-001CJ","55089","6882.155","94.699","512.554","495.486","0"
"GENERATED VIA SPACETRACK.ORG API","18 SPCS","55089","SPACEBEE-163","PAYLOAD","U","23001CJ","2023-07-06 02:12:01","818144","15.20631909","0.0012307","97.4748","247.0117","297.353","62.6452","0","999","2797","0.00055328","0.00012102","0","3950820","0 SPACEBEE-163","1 55089U 23001CJ  23187.09168771  .00012102  00000-0  55328-3 0  9995","2 55089  97.4748 247.0117 0012307 297.3530  62.6452 15.20631909 27978","2023-001CJ","55089","6882.070","94.697","512.405","495.466","0"
"GENERATED VIA SPACETRACK.ORG API","18 SPCS","55089","SPACEBEE-163","PAYLOAD","U","23001CJ","2023-07-07 17:40:56","705952","15.20677519","0.0012363","97.4742","248.6434","290.6131","69.3778","0","999","2822","0.00071374","0.0001566","0","3952294","0 SPACEBEE-163","1 55089U 23001CJ  23188.73676743  .00015660  00000-0  71374-3 0  9991","2 55089  97.4742 248.6434 0012363 290.6131  69.3778 15.20677519 28227","2023-001CJ","55089","6881.933","94.695","512.306","495.290","0"
"GENERATED VIA SPACETRACK.ORG API","18 SPCS","55089","SPACEBEE-163","PAYLOAD","U","23001CJ","2023-07-09 02:50:46","411008","15.20720503","0.0012403","97.4743","250.014","285.0932","74.893","0","999","2843","0.00072002","0.00015819","0","3953479","0 SPACEBEE-163","1 55089U 23001CJ  23190.11859272  .00015819  00000-0  72002-3 0  9991","2 55089  97.4743 250.0140 0012403 285.0932  74.8930 15.20720503 28437","2023-001CJ","55089","6881.803","94.692","512.204","495.133","0"
"GENERATED VIA SPACETRACK.ORG API","18 SPCS","55089","SPACEBEE-163","PAYLOAD","U","23001CJ","2023-07-10 04:06:47","911968","15.20747828","0.0012386","97.4747","251.0583","280.8544","79.1297","0","999","2859","0.00060773","0.00013347","0","3954311","0 SPACEBEE-163","1 55089U 23001CJ  23191.17138787  .00013347  00000-0  60773-3 0  9995","2 55089  97.4747 251.0583 0012386 280.8544  79.1297 15.20747828 28595","2023-001CJ","55089","6881.721","94.690","512.109","495.062","0"
"GENERATED VIA SPACETRACK.ORG API","18 SPCS","55089","SPACEBEE-163","PAYLOAD","U","23001CJ","2023-07-11 18:00:46","840032","15.20794465","0.0012377","97.475","252.625","274.7601","85.2221","0","999","2883","0.00066322","0.00014595","0","3955575","0 SPACEBEE-163","1 55089U 23001CJ  23192.75054213  .00014595  00000-0  66322-3 0  9993","2 55089  97.4750 252.6250 0012377 274.7601  85.2221 15.20794465 28834","2023-001CJ","55089","6881.580","94.687","511.962","494.928","0"
"GENERATED VIA SPACETRACK.ORG API","18 SPCS","55089","SPACEBEE-163","PAYLOAD","U","23001CJ","2023-07-13 03:10:26","919264","15.2084602","0.001248","97.4752","253.9958","269.3487","90.6318","0","999","2904","0.00078823","0.00017392","0","3957087","0 SPACEBEE-163","1 55089U 23001CJ  23194.13225601  .00017392  00000-0  78823-3 0  9995","2 55089  97.4752 253.9958 0012480 269.3487  90.6318 15.20846020 29048","2023-001CJ","55089","6881.424","94.684","511.877","494.701","0"
"GENERATED VIA SPACETRACK.ORG API","18 SPCS","55089","SPACEBEE-163","PAYLOAD","U","23001CJ","2023-07-14 09:10:34","258944","15.20890406","0.0012539","97.4753","255.2359","264.5097","95.4708","0","999","2923","0.00083885","0.00018541","0","3957610","0 SPACEBEE-163","1 55089U 23001CJ  23195.38234096  .00018541  00000-0  83885-3 0  9992","2 55089  97.4753 255.2359 0012539 264.5097  95.4708 15.20890406 29232","2023-001CJ","55089","6881.291","94.681","511.784","494.527","0"
"GENERATED VIA SPACETRACK.ORG API","18 SPCS","55089","SPACEBEE-163","PAYLOAD","U","23001CJ","2023-07-15 16:45:22","282848","15.20946508","0.0012538","97.4753","256.5416","259.4085","100.5738","0","999","2943","0.00087954","0.00019478","0","3958870","0 SPACEBEE-163","1 55089U 23001CJ  23196.69817457  .00019478  00000-0  87954-3 0  9996","2 55089  97.4753 256.5416 0012538 259.4085 100.5738 15.20946508 29437","2023-001CJ","55089","6881.121","94.678","511.614","494.359","0"
"GENERATED VIA SPACETRACK.ORG API","18 SPCS","55089","SPACEBEE-163","PAYLOAD","U","23001CJ","2023-07-16 19:35:54","146688","15.20984661","0.0012615","97.475","257.6515","254.9897","104.9943","0","999","2960","0.00073445","0.00016265","0","3959761","0 SPACEBEE-163","1 55089U 23001CJ  23197.81659892  .00016265  00000-0  73445-3 0  9999","2 55089  97.4750 257.6515 0012615 254.9897 104.9943 15.20984661 29600","2023-001CJ","55089","6881.006","94.676","511.552","494.191","0"
"GENERATED VIA SPACETRACK.ORG API","18 SPCS","55089","SPACEBEE-163","PAYLOAD","U","23001CJ","2023-07-17 17:42:11","391840","15.21023152","0.0012716","97.4746","258.5657","251.5624","108.4229","0","999","2974","0.00092621","0.00020566","0","3960910","0 SPACEBEE-163","1 55089U 23001CJ  23198.73763185  .00020566  00000-0  92621-3 0  9998","2 55089  97.4746 258.5657 0012716 251.5624 108.4229 15.21023152 29746","2023-001CJ","55089","6880.890","94.673","511.505","494.005","0"
"GENERATED VIA SPACETRACK.ORG API","18 SPCS","55089","SPACEBEE-163","PAYLOAD","U","23001CJ","2023-07-19 02:51:33","371136","15.21082636","0.0012838","97.4741","259.9368","246.378","113.6108","0","999","2995","0.00091336","0.00020315","0","3961853","0 SPACEBEE-163","1 55089U 23001CJ  23200.11913624  .00020315  00000-0  91336-3 0  9993","2 55089  97.4741 259.9368 0012838 246.3780 113.6108 15.21082636 29954","2023-001CJ","55089","6880.711","94.669","511.409","493.742","0"
"GENERATED VIA SPACETRACK.ORG API","18 SPCS","55089","SPACEBEE-163","PAYLOAD","U","23001CJ","2023-07-20 15:10:18","394176","15.2113616","0.0012916","97.4738","261.4385","240.4096","119.5852","0","999","3018","0.00079568","0.0001771","0","3962869","0 SPACEBEE-163","1 55089U 23001CJ  23201.63215734  .00017710  00000-0  79568-3 0  9996","2 55089  97.4738 261.4385 0012916 240.4096 119.5852 15.21136160 30189","2023-001CJ","55089","6880.549","94.666","511.301","493.527","0"
"GENERATED VIA SPACETRACK.ORG API","18 SPCS","55089","SPACEBEE-163","PAYLOAD","U","23001CJ","2023-07-23 14:12:50","656608","15.21251192","0.001315","97.4733","264.377","229.9114","130.0969","0","999","3063","0.00084524","0.00018886","0","3963756","0 SPACEBEE-163","1 55089U 23001CJ  23204.59225297  .00018886  00000-0  84524-3 0  9992","2 55089  97.4733 264.3770 0013150 229.9114 130.0969 15.21251192 30638","2023-001CJ","55089","6880.202","94.659","511.115","493.020","0"
"GENERATED VIA SPACETRACK.ORG API","18 SPCS","55089","SPACEBEE-163","PAYLOAD","U","23001CJ","2023-07-25 02:31:20","801568","15.21313813","0.0013285","97.4735","265.8783","224.2988","135.7186","0","999","3086","0.00087758","0.0001965","0","3963759","0 SPACEBEE-163","1 55089U 23001CJ  23206.10510187  .00019650  00000-0  87758-3 0  9998","2 55089  97.4735 265.8783 0013285 224.2988 135.7186 15.21313813 30863","2023-001CJ","55089","6880.014","94.655","511.019","492.739","0"
